{
    "links": {
        "self": "http://www.neowsapp.com/rest/v1/neo/54054358?api_key=iIulBulltgU6a56xZRHN4H3l9WmuAYTsLGpBGhQ2"
    },
    "id": "54054358",
    "neo_reference_id": "54054358",
    "name": "(2020 RM7)",
    "designation": "2020 RM7",
    "nasa_jpl_url": "http://ssd.jpl.nasa.gov/sbdb.cgi?sstr=54054358",
    "absolute_magnitude_h": 26.827,
    "estimated_diameter": {
        "kilometers": {
            "estimated_diameter_min": 0.0114592179,
            "estimated_diameter_max": 0.0256235901
        },
        "meters": {
            "estimated_diameter_min": 11.4592178704,
            "estimated_diameter_max": 25.6235901273
        },
        "miles": {
            "estimated_diameter_min": 0.0071204257,
            "estimated_diameter_max": 0.0159217558
        },
        "feet": {
            "estimated_diameter_min": 37.5958603581,
            "estimated_diameter_max": 84.0668994332
        }
    },
    "is_potentially_hazardous_asteroid": false,
    "close_approach_data": [
        {
            "close_approach_date": "1976-02-10",
            "close_approach_date_full": "1976-Feb-10 19:31",
            "epoch_date_close_approach": 192828660000,
            "relative_velocity": {
                "kilometers_per_second": "31.2892277777",
                "kilometers_per_hour": "112641.2199998006",
                "miles_per_hour": "69990.8736159872"
            },
            "miss_distance": {
                "astronomical": "0.4607634899",
                "lunar": "179.2369975711",
                "kilometers": "68929236.662806513",
                "miles": "42830641.5790273594"
            },
            "orbiting_body": "Earth"
        },
        {
            "close_approach_date": "2020-09-05",
            "close_approach_date_full": "2020-Sep-05 16:18",
            "epoch_date_close_approach": 1599322680000,
            "relative_velocity": {
                "kilometers_per_second": "17.5466166121",
                "kilometers_per_hour": "63167.819803407",
                "miles_per_hour": "39250.0266995114"
            },
            "miss_distance": {
                "astronomical": "0.0043859889",
                "lunar": "1.7061496821",
                "kilometers": "656134.597283643",
                "miles": "407703.1333065534"
            },
            "orbiting_body": "Earth"
        },
        {
            "close_approach_date": "2020-09-05",
            "close_approach_date_full": "2020-Sep-05 20:24",
            "epoch_date_close_approach": 1599337440000,
            "relative_velocity": {
                "kilometers_per_second": "18.1662941882",
                "kilometers_per_hour": "65398.6590775042",
                "miles_per_hour": "40636.1834695747"
            },
            "miss_distance": {
                "astronomical": "0.0062414558",
                "lunar": "2.4279263062",
                "kilometers": "933708.493379146",
                "miles": "580179.5545023748"
            },
            "orbiting_body": "Moon"
        }
    ],
    "orbital_data": {
        "orbit_id": "1",
        "orbit_determination_date": "2020-09-16 07:56:32",
        "first_observation_date": "2020-09-10",
        "last_observation_date": "2020-09-16",
        "data_arc_in_days": 6,
        "observations_used": 19,
        "orbit_uncertainty": "8",
        "minimum_orbit_intersection": ".000795115",
        "jupiter_tisserand_invariant": "4.405",
        "epoch_osculation": "2459105.5",
        "eccentricity": ".5610132316140716",
        "semi_major_axis": "1.47398942519579",
        "inclination": "6.593137980555598",
        "ascending_node_longitude": "342.642816710959",
        "orbital_period": "653.642042716537",
        "perihelion_distance": ".6470618544017319",
        "perihelion_argument": "270.6063916937136",
        "aphelion_distance": "2.300916995989847",
        "perihelion_time": "2459045.268921616282",
        "mean_anomaly": "33.17287873347793",
        "mean_motion": ".5507601660747519",
        "equinox": "J2000",
        "orbit_class": {
            "orbit_class_type": "APO",
            "orbit_class_description": "Near-Earth asteroid orbits which cross the Earth’s orbit similar to that of 1862 Apollo",
            "orbit_class_range": "a (semi-major axis) > 1.0 AU; q (perihelion) < 1.017 AU"
        }
    },
    "is_sentry_object": false
}